{
    "links": {
        "self": "http://www.neowsapp.com/rest/v1/neo/3550087?api_key=iIulBulltgU6a56xZRHN4H3l9WmuAYTsLGpBGhQ2"
    },
    "id": "3550087",
    "neo_reference_id": "3550087",
    "name": "(2010 UW7)",
    "designation": "2010 UW7",
    "nasa_jpl_url": "http://ssd.jpl.nasa.gov/sbdb.cgi?sstr=3550087",
    "absolute_magnitude_h": 24.0,
    "estimated_diameter": {
        "kilometers": {
            "estimated_diameter_min": 0.0421264611,
            "estimated_diameter_max": 0.0941976306
        },
        "meters": {
            "estimated_diameter_min": 42.1264610556,
            "estimated_diameter_max": 94.1976305719
        },
        "miles": {
            "estimated_diameter_min": 0.0261761612,
            "estimated_diameter_max": 0.0585316759
        },
        "feet": {
            "estimated_diameter_min": 138.2101784897,
            "estimated_diameter_max": 309.0473542854
        }
    },
    "is_potentially_hazardous_asteroid": false,
    "close_approach_data": [
        {
            "close_approach_date": "2010-10-24",
            "close_approach_date_full": "2010-Oct-24 11:47",
            "epoch_date_close_approach": 1287920820000,
            "relative_velocity": {
                "kilometers_per_second": "11.4439026368",
                "kilometers_per_hour": "41198.049492566",
                "miles_per_hour": "25598.8658083114"
            },
            "miss_distance": {
                "astronomical": "0.1293011568",
                "lunar": "50.2981499952",
                "kilometers": "19343177.645816016",
                "miles": "12019293.2470763808"
            },
            "orbiting_body": "Earth"
        }
    ],
    "orbital_data": {
        "orbit_id": "7",
        "orbit_determination_date": "2017-04-06 08:56:04",
        "first_observation_date": "2010-10-30",
        "last_observation_date": "2010-11-12",
        "data_arc_in_days": 13,
        "observations_used": 31,
        "orbit_uncertainty": "9",
        "minimum_orbit_intersection": ".128718",
        "jupiter_tisserand_invariant": "3.112",
        "epoch_osculation": "2455503.5",
        "eccentricity": ".5752856897248645",
        "semi_major_axis": "2.589961143243209",
        "inclination": "17.11894023266338",
        "ascending_node_longitude": "220.0783976115574",
        "orbital_period": "1522.433387426054",
        "perihelion_distance": "1.099993560591941",
        "perihelion_argument": "156.0772094768518",
        "aphelion_distance": "4.079928725894478",
        "perihelion_time": "2455479.861616167252",
        "mean_anomaly": "5.589616104108603",
        "mean_motion": ".2364635477474942",
        "equinox": "J2000",
        "orbit_class": {
            "orbit_class_type": "AMO",
            "orbit_class_description": "Near-Earth asteroid orbits similar to that of 1221 Amor",
            "orbit_class_range": "1.017 AU < q (perihelion) < 1.3 AU"
        }
    },
    "is_sentry_object": false
}